[{"OBJECT_NAME":"SHIJIAN-6 01A (SJ-6 01A)","OBJECT_ID":"2004-035A","EPOCH":"2026-03-09T23:26:31.260480","MEAN_MOTION":15.1644809,"ECCENTRICITY":0.0008065,"INCLINATION":97.598,"RA_OF_ASC_NODE":95.8752,"ARG_OF_PERICENTER":114.4113,"MEAN_ANOMALY":245.7962,"EPHEMERIS_TYPE":0,"CLASSIFICATION_TYPE":"U","NORAD_CAT_ID":28413,"ELEMENT_SET_NO":999,"REV_AT_EPOCH":17242,"BSTAR":0.00047768034,"MEAN_MOTION_DOT":9.235e-5,"MEAN_MOTION_DDOT":0},{"OBJECT_NAME":"LEMUR-2-STAS-GORBUK","OBJECT_ID":"2025-276W","EPOCH":"2026-03-09T17:09:04.423392","MEAN_MOTION":15.18201916,"ECCENTRICITY":0.00048292,"INCLINATION":97.4319,"RA_OF_ASC_NODE":143.9565,"ARG_OF_PERICENTER":1.4677,"MEAN_ANOMALY":358.657,"EPHEMERIS_TYPE":0,"CLASSIFICATION_TYPE":"U","NORAD_CAT_ID":66686,"ELEMENT_SET_NO":999,"REV_AT_EPOCH":1531,"BSTAR":0.00034029454,"MEAN_MOTION_DOT":6.895e-5,"MEAN_MOTION_DDOT":0}]
